{
  "type": "FeatureCollection",
  "features": [
    {
      "type": "Feature",
      "properties": {
        "norad_id": 28054,
        "name": "DMSP 5D-3 F16 (USA 172)",
        "group": "weather",
        "lat": -77.00615725747598,
        "lon": 145.06907831150747,
        "alt_km": 848.4256918449919,
        "timestamp": "2025-12-16T23:36:35.827615+00:00",
        "meta_object_name": "DMSP 5D-3 F16 (USA 172)",
        "meta_object_id": "2003-048A",
        "meta_epoch": "2025-12-16T07:59:32.000064",
        "meta_mean_motion": 14.14425587,
        "meta_eccentricity": 0.00063834,
        "meta_inclination": 99.0044,
        "meta_ra_of_asc_node": 7.8183,
        "meta_arg_of_pericenter": 309.5153,
        "meta_mean_anomaly": 239.4387,
        "meta_ephemeris_type": 0,
        "meta_classification_type": "U",
        "meta_norad_cat_id": 28054,
        "meta_element_set_no": 999,
        "meta_rev_at_epoch": 14363,
        "meta_bstar": 9.3501564e-05,
        "meta_mean_motion_dot": 1.33e-06,
        "meta_mean_motion_ddot": 0,
        "tle_line1": "1 28054U 03048A   25350.33300926  .00000133  00000+0  93502-4 0  9994",
        "tle_line2": "2 28054  99.0044   7.8183 0006383 309.5153 239.4387 14.14425587143634"
      },
      "geometry": {
        "type": "Point",
        "coordinates": [
          145.06907831150747,
          -77.00615725747598
        ]
      }
    },
    {
      "type": "Feature",
      "properties": {
        "norad_id": 28912,
        "name": "METEOSAT-9 (MSG-2)",
        "group": "weather",
        "lat": 8.411896979675051,
        "lon": 125.51285122217796,
        "alt_km": 35790.51085983257,
        "timestamp": "2025-12-16T23:36:35.827665+00:00",
        "meta_object_name": "METEOSAT-9 (MSG-2)",
        "meta_object_id": "2005-049B",
        "meta_epoch": "2025-12-15T20:27:10.626048",
        "meta_mean_motion": 1.00278296,
        "meta_eccentricity": 0.00034199,
        "meta_inclination": 8.9463,
        "meta_ra_of_asc_node": 55.948,
        "meta_arg_of_pericenter": 190.7144,
        "meta_mean_anomaly": 190.6182,
        "meta_ephemeris_type": 0,
        "meta_classification_type": "U",
        "meta_norad_cat_id": 28912,
        "meta_element_set_no": 999,
        "meta_rev_at_epoch": 516,
        "meta_bstar": 0,
        "meta_mean_motion_dot": 1.39e-06,
        "meta_mean_motion_ddot": 0,
        "tle_line1": "1 28912U 05049B   25349.85220632  .00000139  00000+0  00000+0 0  9992",
        "tle_line2": "2 28912   8.9463  55.9480 0003419 190.7144 190.6182  1.00278296  5162"
      },
      "geometry": {
        "type": "Point",
        "coordinates": [
          125.51285122217796,
          8.411896979675051
        ]
      }
    },
    {
      "type": "Feature",
      "properties": {
        "norad_id": 29522,
        "name": "DMSP 5D-3 F17 (USA 191)",
        "group": "weather",
        "lat": -28.214506083921876,
        "lon": 171.55068843160836,
        "alt_km": 841.4622697702671,
        "timestamp": "2025-12-16T23:36:35.827683+00:00",
        "meta_object_name": "DMSP 5D-3 F17 (USA 191)",
        "meta_object_id": "2006-050A",
        "meta_epoch": "2025-12-16T07:21:10.698048",
        "meta_mean_motion": 14.14921197,
        "meta_eccentricity": 0.00095466,
        "meta_inclination": 98.7392,
        "meta_ra_of_asc_node": 355.6213,
        "meta_arg_of_pericenter": 213.9806,
        "meta_mean_anomaly": 146.0757,
        "meta_ephemeris_type": 0,
        "meta_classification_type": "U",
        "meta_norad_cat_id": 29522,
        "meta_element_set_no": 999,
        "meta_rev_at_epoch": 98655,
        "meta_bstar": 0.00010753164,
        "meta_mean_motion_dot": 1.65e-06,
        "meta_mean_motion_ddot": 0,
        "tle_line1": "1 29522U 06050A   25350.30637382  .00000165  00000+0  10753-3 0  9998",
        "tle_line2": "2 29522  98.7392 355.6213 0009546 213.9806 146.0757 14.14921197986550"
      },
      "geometry": {
        "type": "Point",
        "coordinates": [
          171.55068843160836,
          -28.214506083921876
        ]
      }
    },
    {
      "type": "Feature",
      "properties": {
        "norad_id": 32958,
        "name": "FENGYUN 3A",
        "group": "weather",
        "lat": -7.383380478771276,
        "lon": -68.44597225770501,
        "alt_km": 827.6389215390054,
        "timestamp": "2025-12-16T23:36:35.827698+00:00",
        "meta_object_name": "FENGYUN 3A",
        "meta_object_id": "2008-026A",
        "meta_epoch": "2025-12-16T08:25:11.951328",
        "meta_mean_motion": 14.19515786,
        "meta_eccentricity": 0.00077716,
        "meta_inclination": 98.67,
        "meta_ra_of_asc_node": 289.8016,
        "meta_arg_of_pericenter": 299.003,
        "meta_mean_anomaly": 61.0367,
        "meta_ephemeris_type": 0,
        "meta_classification_type": "U",
        "meta_norad_cat_id": 32958,
        "meta_element_set_no": 999,
        "meta_rev_at_epoch": 90946,
        "meta_bstar": 6.3998465e-05,
        "meta_mean_motion_dot": 9.2e-07,
        "meta_mean_motion_ddot": 0,
        "tle_line1": "1 32958U 08026A   25350.35083277  .00000092  00000+0  63998-4 0  9992",
        "tle_line2": "2 32958  98.6700 289.8016 0007771 299.0030  61.0367 14.19515786909466"
      },
      "geometry": {
        "type": "Point",
        "coordinates": [
          -68.44597225770501,
          -7.383380478771276
        ]
      }
    },
    {
      "type": "Feature",
      "properties": {
        "norad_id": 35491,
        "name": "GOES 14",
        "group": "weather",
        "lat": -1.0800243541557681,
        "lon": -32.42823103208384,
        "alt_km": 35834.63489042721,
        "timestamp": "2025-12-16T23:36:35.827712+00:00",
        "meta_object_name": "GOES 14",
        "meta_object_id": "2009-033A",
        "meta_epoch": "2025-12-16T08:46:52.654080",
        "meta_mean_motion": 1.00096598,
        "meta_eccentricity": 5.723e-05,
        "meta_inclination": 1.212,
        "meta_ra_of_asc_node": 85.3619,
        "meta_arg_of_pericenter": 170.3744,
        "meta_mean_anomaly": 209.1948,
        "meta_ephemeris_type": 0,
        "meta_classification_type": "U",
        "meta_norad_cat_id": 35491,
        "meta_element_set_no": 999,
        "meta_rev_at_epoch": 476,
        "meta_bstar": 0,
        "meta_mean_motion_dot": 5e-08,
        "meta_mean_motion_ddot": 0,
        "tle_line1": "1 35491U 09033A   25350.36588720  .00000005  00000+0  00000+0 0  9994",
        "tle_line2": "2 35491   1.2120  85.3619 0000572 170.3744 209.1948  1.00096598  4760"
      },
      "geometry": {
        "type": "Point",
        "coordinates": [
          -32.42823103208384,
          -1.0800243541557681
        ]
      }
    },
    {
      "type": "Feature",
      "properties": {
        "norad_id": 35951,
        "name": "DMSP 5D-3 F18 (USA 210)",
        "group": "weather",
        "lat": 71.45513734083949,
        "lon": -60.42640603371778,
        "alt_km": 828.1447471504544,
        "timestamp": "2025-12-16T23:36:35.827728+00:00",
        "meta_object_name": "DMSP 5D-3 F18 (USA 210)",
        "meta_object_id": "2009-057A",
        "meta_epoch": "2025-12-16T04:35:35.430720",
        "meta_mean_motion": 14.14771368,
        "meta_eccentricity": 0.00119892,
        "meta_inclination": 98.8837,
        "meta_ra_of_asc_node": 326.5749,
        "meta_arg_of_pericenter": 53.6848,
        "meta_mean_anomaly": 306.543,
        "meta_ephemeris_type": 0,
        "meta_classification_type": "U",
        "meta_norad_cat_id": 35951,
        "meta_element_set_no": 999,
        "meta_rev_at_epoch": 83371,
        "meta_bstar": 0.00016664226,
        "meta_mean_motion_dot": 2.77e-06,
        "meta_mean_motion_ddot": 0,
        "tle_line1": "1 35951U 09057A   25350.19138230  .00000277  00000+0  16664-3 0  9997",
        "tle_line2": "2 35951  98.8837 326.5749 0011989  53.6848 306.5430 14.14771368833711"
      },
      "geometry": {
        "type": "Point",
        "coordinates": [
          -60.42640603371778,
          71.45513734083949
        ]
      }
    },
    {
      "type": "Feature",
      "properties": {
        "norad_id": 36411,
        "name": "EWS-G2 (GOES 15)",
        "group": "weather",
        "lat": 0.6859272882714418,
        "lon": 141.32842174880807,
        "alt_km": 35798.22379191339,
        "timestamp": "2025-12-16T23:36:35.827752+00:00",
        "meta_object_name": "EWS-G2 (GOES 15)",
        "meta_object_id": "2010-008A",
        "meta_epoch": "2025-12-15T20:40:38.740800",
        "meta_mean_motion": 1.00270508,
        "meta_eccentricity": 0.00055584,
        "meta_inclination": 0.8214,
        "meta_ra_of_asc_node": 86.0762,
        "meta_arg_of_pericenter": 175.7709,
        "meta_mean_anomaly": 194.4603,
        "meta_ephemeris_type": 0,
        "meta_classification_type": "U",
        "meta_norad_cat_id": 36411,
        "meta_element_set_no": 999,
        "meta_rev_at_epoch": 5780,
        "meta_bstar": 0,
        "meta_mean_motion_dot": 6e-07,
        "meta_mean_motion_ddot": 0,
        "tle_line1": "1 36411U 10008A   25349.86155950  .00000060  00000+0  00000+0 0  9990",
        "tle_line2": "2 36411   0.8214  86.0762 0005558 175.7709 194.4603  1.00270508 57800"
      },
      "geometry": {
        "type": "Point",
        "coordinates": [
          141.32842174880807,
          0.6859272882714418
        ]
      }
    }
  ]
}